start=new Date('2022-06-07T00:00:00.000Z').valueOf();
sats=[{"TIME_SYSTEM":"UTC","RCS_SIZE":"LARGE","FILE":"3484350","TLE_LINE1":"1 45543U 20025N   22157.69146133  .00001167  00000-0  97222-4 0  9991","INCLINATION":"53.0552","MEAN_MOTION":"15.06409588","APOAPSIS":"548.678","TLE_LINE2":"2 45543  53.0552 145.7651 0002157  54.7077 305.4114 15.06409588117392","PERIOD":"95.592","MEAN_MOTION_DDOT":"0.0000000000000","OBJECT_NAME":"STARLINK-1372","BSTAR":"0.00009722200000","CLASSIFICATION_TYPE":"U","COUNTRY_CODE":"US","REF_FRAME":"TEME","MEAN_ANOMALY":"305.4114","EPHEMERIS_TYPE":"0","GP_ID":"205523535","ELEMENT_SET_NO":"999","REV_AT_EPOCH":"11739","DECAY_DATE":null,"ARG_OF_PERICENTER":"54.7077","OBJECT_TYPE":"PAYLOAD","ECCENTRICITY":"0.00021570","RA_OF_ASC_NODE":"145.7651","SITE":"AFETR","MEAN_ELEMENT_THEORY":"SGP4","SEMIMAJOR_AXIS":"6925.319","CENTER_NAME":"EARTH","LAUNCH_DATE":"2020-04-22","EPOCH":"2022-06-06T16:35:42.258912","OBJECT_ID":"2020-025N","NORAD_CAT_ID":"45543","PERIAPSIS":"545.690","MEAN_MOTION_DOT":"0.00001167"},{"RCS_SIZE":"LARGE","FILE":"3484104","TIME_SYSTEM":"UTC","APOAPSIS":"548.298","TLE_LINE1":"1 45544U 20025P   22157.37814717  .00000799  00000-0  72554-4 0  9998","MEAN_MOTION":"15.06402005","INCLINATION":"53.0543","PERIOD":"95.592","MEAN_MOTION_DDOT":"0.0000000000000","TLE_LINE2":"2 45544  53.0543 147.1715 0001575  70.0665 290.0494 15.06402005118250","CLASSIFICATION_TYPE":"U","BSTAR":"0.00007255400000","OBJECT_NAME":"STARLINK-1373","EPHEMERIS_TYPE":"0","MEAN_ANOMALY":"290.0494","GP_ID":"205492460","COUNTRY_CODE":"US","REF_FRAME":"TEME","DECAY_DATE":null,"ARG_OF_PERICENTER":"70.0665","REV_AT_EPOCH":"11825","ELEMENT_SET_NO":"999","RA_OF_ASC_NODE":"147.1715","ECCENTRICITY":"0.00015750","OBJECT_TYPE":"PAYLOAD","MEAN_ELEMENT_THEORY":"SGP4","SITE":"AFETR","OBJECT_ID":"2020-025P","EPOCH":"2022-06-06T09:04:31.915488","PERIAPSIS":"546.117","MEAN_MOTION_DOT":"0.00000799","NORAD_CAT_ID":"45544","SEMIMAJOR_AXIS":"6925.342","CENTER_NAME":"EARTH","LAUNCH_DATE":"2020-04-22"},{"RCS_SIZE":"LARGE","FILE":"3484350","TIME_SYSTEM":"UTC","APOAPSIS":"548.703","INCLINATION":"53.0552","TLE_LINE1":"1 45545U 20025Q   22157.66196776 -.00001061  00000-0 -52314-4 0  9996","MEAN_MOTION":"15.06399774","TLE_LINE2":"2 45545  53.0552 145.8807 0002149  55.4257 304.6935 15.06399774118272","PERIOD":"95.592","MEAN_MOTION_DDOT":"0.0000000000000","OBJECT_NAME":"STARLINK-1374","BSTAR":"-0.00005231400000","CLASSIFICATION_TYPE":"U","REF_FRAME":"TEME","COUNTRY_CODE":"US","MEAN_ANOMALY":"304.6935","EPHEMERIS_TYPE":"0","GP_ID":"205524531","REV_AT_EPOCH":"11827","ELEMENT_SET_NO":"999","DECAY_DATE":null,"ARG_OF_PERICENTER":"55.4257","OBJECT_TYPE":"PAYLOAD","RA_OF_ASC_NODE":"145.8807","ECCENTRICITY":"0.00021490","SITE":"AFETR","MEAN_ELEMENT_THEORY":"SGP4","CENTER_NAME":"EARTH","SEMIMAJOR_AXIS":"6925.349","LAUNCH_DATE":"2020-04-22","OBJECT_ID":"2020-025Q","EPOCH":"2022-06-06T15:53:14.014464","PERIAPSIS":"545.726","MEAN_MOTION_DOT":"-0.00001061","NORAD_CAT_ID":"45545"},{"LAUNCH_DATE":"2020-04-22","SEMIMAJOR_AXIS":"6925.352","CENTER_NAME":"EARTH","NORAD_CAT_ID":"45546","MEAN_MOTION_DOT":"0.00001242","PERIAPSIS":"546.183","EPOCH":"2022-06-06T16:09:09.703008","OBJECT_ID":"2020-025R","SITE":"AFETR","MEAN_ELEMENT_THEORY":"SGP4","OBJECT_TYPE":"PAYLOAD","ECCENTRICITY":"0.00014930","RA_OF_ASC_NODE":"145.8414","ELEMENT_SET_NO":"999","REV_AT_EPOCH":"11829","ARG_OF_PERICENTER":"63.4055","DECAY_DATE":null,"COUNTRY_CODE":"US","REF_FRAME":"TEME","GP_ID":"205524755","MEAN_ANOMALY":"296.7087","EPHEMERIS_TYPE":"0","OBJECT_NAME":"STARLINK-1375","BSTAR":"0.00010225000000","CLASSIFICATION_TYPE":"U","TLE_LINE2":"2 45546  53.0553 145.8414 0001493  63.4055 296.7087 15.06398845118293","MEAN_MOTION_DDOT":"0.0000000000000","PERIOD":"95.592","INCLINATION":"53.0553","TLE_LINE1":"1 45546U 20025R   22157.67302897  .00001242  00000-0  10225-3 0  9994","MEAN_MOTION":"15.06398845","APOAPSIS":"548.251","TIME_SYSTEM":"UTC","FILE":"3484350","RCS_SIZE":"LARGE"},{"SITE":"AFETR","MEAN_ELEMENT_THEORY":"SGP4","SEMIMAJOR_AXIS":"6925.359","CENTER_NAME":"EARTH","LAUNCH_DATE":"2020-04-22","EPOCH":"2022-06-06T16:03:51.655968","OBJECT_ID":"2020-025S","NORAD_CAT_ID":"45547","MEAN_MOTION_DOT":"0.00001498","PERIAPSIS":"546.045","ELEMENT_SET_NO":"999","REV_AT_EPOCH":"11830","DECAY_DATE":null,"ARG_OF_PERICENTER":"61.5525","OBJECT_TYPE":"PAYLOAD","ECCENTRICITY":"0.00017020","RA_OF_ASC_NODE":"145.8565","OBJECT_NAME":"STARLINK-1377","BSTAR":"0.00011946000000","CLASSIFICATION_TYPE":"U","COUNTRY_CODE":"US","REF_FRAME":"TEME","EPHEMERIS_TYPE":"0","MEAN_ANOMALY":"298.5636","GP_ID":"205523035","TIME_SYSTEM":"UTC","FILE":"3484350","RCS_SIZE":"LARGE","MEAN_MOTION":"15.06396646","TLE_LINE1":"1 45547U 20025S   22157.66934787  .00001498  00000-0  11946-3 0  9997","INCLINATION":"53.0564","APOAPSIS":"548.403","TLE_LINE2":"2 45547  53.0564 145.8565 0001702  61.5525 298.5636 15.06396646118306","PERIOD":"95.592","MEAN_MOTION_DDOT":"0.0000000000000"},{"ELEMENT_SET_NO":"999","REV_AT_EPOCH":"11829","DECAY_DATE":null,"ARG_OF_PERICENTER":"62.7806","OBJECT_TYPE":"PAYLOAD","ECCENTRICITY":"0.00019890","RA_OF_ASC_NODE":"145.7524","SITE":"AFETR","MEAN_ELEMENT_THEORY":"SGP4","CENTER_NAME":"EARTH","SEMIMAJOR_AXIS":"6925.381","LAUNCH_DATE":"2020-04-22","EPOCH":"2022-06-06T16:41:00.374208","OBJECT_ID":"2020-025T","NORAD_CAT_ID":"45548","PERIAPSIS":"545.869","MEAN_MOTION_DOT":"0.00000739","TIME_SYSTEM":"UTC","FILE":"3484350","RCS_SIZE":"LARGE","MEAN_MOTION":"15.06389312","TLE_LINE1":"1 45548U 20025T   22157.69514322  .00000739  00000-0  68546-4 0  9996","INCLINATION":"53.0547","APOAPSIS":"548.624","TLE_LINE2":"2 45548  53.0547 145.7524 0001989  62.7806 297.3386 15.06389312118293","PERIOD":"95.593","MEAN_MOTION_DDOT":"0.0000000000000","OBJECT_NAME":"STARLINK-1378","BSTAR":"0.00006854600000","CLASSIFICATION_TYPE":"U","REF_FRAME":"TEME","COUNTRY_CODE":"US","EPHEMERIS_TYPE":"0","MEAN_ANOMALY":"297.3386","GP_ID":"205523281"},{"REV_AT_EPOCH":"11824","ELEMENT_SET_NO":"999","ARG_OF_PERICENTER":"60.9737","DECAY_DATE":null,"OBJECT_TYPE":"PAYLOAD","RA_OF_ASC_NODE":"147.1553","ECCENTRICITY":"0.00017780","SITE":"AFETR","MEAN_ELEMENT_THEORY":"SGP4","LAUNCH_DATE":"2020-04-22","SEMIMAJOR_AXIS":"6925.382","CENTER_NAME":"EARTH","MEAN_MOTION_DOT":"0.00000723","PERIAPSIS":"546.016","NORAD_CAT_ID":"45550","OBJECT_ID":"2020-025V","EPOCH":"2022-06-06T09:08:30.338016","APOAPSIS":"548.479","TLE_LINE1":"1 45550U 20025V   22157.38090669  .00000723  00000-0  67440-4 0  9993","INCLINATION":"53.0522","MEAN_MOTION":"15.06388934","RCS_SIZE":"LARGE","FILE":"3484104","TIME_SYSTEM":"UTC","TLE_LINE2":"2 45550  53.0522 147.1553 0001778  60.9737 299.1430 15.06388934118240","MEAN_MOTION_DDOT":"0.0000000000000","PERIOD":"95.593","OBJECT_NAME":"STARLINK-1390","BSTAR":"0.00006744000000","CLASSIFICATION_TYPE":"U","COUNTRY_CODE":"US","REF_FRAME":"TEME","GP_ID":"205492211","EPHEMERIS_TYPE":"0","MEAN_ANOMALY":"299.1430"},{"SEMIMAJOR_AXIS":"6925.345","CENTER_NAME":"EARTH","LAUNCH_DATE":"2020-04-22","EPOCH":"2022-06-06T15:34:38.469504","OBJECT_ID":"2020-025W","NORAD_CAT_ID":"45551","PERIAPSIS":"545.843","MEAN_MOTION_DOT":"0.00001202","SITE":"AFETR","MEAN_ELEMENT_THEORY":"SGP4","OBJECT_TYPE":"PAYLOAD","ECCENTRICITY":"0.00019730","RA_OF_ASC_NODE":"125.9387","ELEMENT_SET_NO":"999","REV_AT_EPOCH":"11857","DECAY_DATE":null,"ARG_OF_PERICENTER":"55.7723","COUNTRY_CODE":"US","REF_FRAME":"TEME","EPHEMERIS_TYPE":"0","MEAN_ANOMALY":"304.3452","GP_ID":"205524255","OBJECT_NAME":"STARLINK-1294","BSTAR":"0.00009960000000","CLASSIFICATION_TYPE":"U","TLE_LINE2":"2 45551  53.0556 125.9387 0001973  55.7723 304.3452 15.06401280118570","PERIOD":"95.592","MEAN_MOTION_DDOT":"0.0000000000000","TIME_SYSTEM":"UTC","RCS_SIZE":"LARGE","FILE":"3484350","TLE_LINE1":"1 45551U 20025W   22157.64905636  .00001202  00000-0  99600-4 0  9998","MEAN_MOTION":"15.06401280","INCLINATION":"53.0556","APOAPSIS":"548.576"},{"CENTER_NAME":"EARTH","SEMIMAJOR_AXIS":"6754.055","LAUNCH_DATE":"2020-04-22","EPOCH":"2022-06-06T03:55:43.918464","OBJECT_ID":"2020-025X","NORAD_CAT_ID":"45552","PERIAPSIS":"369.739","MEAN_MOTION_DOT":"0.00192151","SITE":"AFETR","MEAN_ELEMENT_THEORY":"SGP4","OBJECT_TYPE":"PAYLOAD","ECCENTRICITY":"0.00091520","RA_OF_ASC_NODE":"63.0160","ELEMENT_SET_NO":"999","REV_AT_EPOCH":"11941","DECAY_DATE":null,"ARG_OF_PERICENTER":"128.5277","COUNTRY_CODE":"US","REF_FRAME":"TEME","MEAN_ANOMALY":"231.6558","EPHEMERIS_TYPE":"0","GP_ID":"205493211","OBJECT_NAME":"STARLINK-1322","CLASSIFICATION_TYPE":"U","BSTAR":"0.00194860000000","TLE_LINE2":"2 45552  53.0431  63.0160 0009152 128.5277 231.6558 15.64068897119414","PERIOD":"92.068","MEAN_MOTION_DDOT":"0.0000000000000","TIME_SYSTEM":"UTC","RCS_SIZE":"LARGE","FILE":"3484104","MEAN_MOTION":"15.64068897","TLE_LINE1":"1 45552U 20025X   22157.16370276  .00192151  00000-0  19486-2 0  9998","INCLINATION":"53.0431","APOAPSIS":"382.101"},{"DECAY_DATE":null,"ARG_OF_PERICENTER":"60.5035","REV_AT_EPOCH":"11721","ELEMENT_SET_NO":"999","RA_OF_ASC_NODE":"127.9747","ECCENTRICITY":"0.00020480","OBJECT_TYPE":"PAYLOAD","MEAN_ELEMENT_THEORY":"SGP4","SITE":"AFETR","OBJECT_ID":"2020-025Y","EPOCH":"2022-06-06T04:41:47.407776","PERIAPSIS":"545.785","MEAN_MOTION_DOT":"0.00000362","NORAD_CAT_ID":"45553","SEMIMAJOR_AXIS":"6925.338","CENTER_NAME":"EARTH","LAUNCH_DATE":"2020-04-22","RCS_SIZE":"LARGE","FILE":"3484104","TIME_SYSTEM":"UTC","APOAPSIS":"548.621","INCLINATION":"53.0538","TLE_LINE1":"1 45553U 20025Y   22157.19568759  .00000362  00000-0  43232-4 0  9997","MEAN_MOTION":"15.06403477","PERIOD":"95.592","MEAN_MOTION_DDOT":"0.0000000000000","TLE_LINE2":"2 45553  53.0538 127.9747 0002048  60.5035 299.6158 15.06403477117217","BSTAR":"0.00004323200000","CLASSIFICATION_TYPE":"U","OBJECT_NAME":"STARLINK-1323","MEAN_ANOMALY":"299.6158","EPHEMERIS_TYPE":"0","GP_ID":"205492461","COUNTRY_CODE":"US","REF_FRAME":"TEME"}];
